HST                     
1 20580U 90037B   26068.15977042  .00009063  00000+0  30023-3 0  9999
2 20580  28.4717  43.6133 0001837 120.9992 239.0785 15.29473555773239
STARLINK-30547          
1 58044U 23156S   26068.57096394 -.00000524  00000+0 -55712-5 0  9990
2 58044  53.1606 168.7607 0001045 106.5336 253.5779 15.30185923135018
